{"fetched_at":"2026-07-16T17:46:21.229Z","source":"https://celestrak.org/NORAD/elements/gp.php?NAME=CENTAURI&FORMAT=JSON","constellation":"myriota","records":[{"OBJECT_NAME":"CENTAURI-1","OBJECT_ID":"2018-099BD","EPOCH":"2026-07-16T02:33:34.983360","CLASSIFICATION_TYPE":"U","MEAN_MOTION":15.16629966,"ECCENTRICITY":0.00130592,"INCLINATION":97.4205,"RA_OF_ASC_NODE":248.2074,"ARG_OF_PERICENTER":221.4471,"MEAN_ANOMALY":138.5773,"EPHEMERIS_TYPE":0,"NORAD_CAT_ID":43809,"ELEMENT_SET_NO":999,"REV_AT_EPOCH":41688,"BSTAR":0.00014631297,"MEAN_MOTION_DOT":0.00002799,"MEAN_MOTION_DDOT":0},{"OBJECT_NAME":"CENTAURI-6","OBJECT_ID":"2024-066K","EPOCH":"2026-07-16T04:33:04.769856","CLASSIFICATION_TYPE":"U","MEAN_MOTION":15.06039629,"ECCENTRICITY":0.00016428,"INCLINATION":45.6065,"RA_OF_ASC_NODE":103.003,"ARG_OF_PERICENTER":251.9355,"MEAN_ANOMALY":108.135,"EPHEMERIS_TYPE":0,"NORAD_CAT_ID":59451,"ELEMENT_SET_NO":999,"REV_AT_EPOCH":12449,"BSTAR":0.00017062309,"MEAN_MOTION_DOT":0.00002283,"MEAN_MOTION_DDOT":0},{"OBJECT_NAME":"CENTAURI-7","OBJECT_ID":"2025-009DD","EPOCH":"2026-07-16T04:29:06.120096","CLASSIFICATION_TYPE":"U","MEAN_MOTION":14.97977697,"ECCENTRICITY":0.00026682,"INCLINATION":97.7102,"RA_OF_ASC_NODE":277.0953,"ARG_OF_PERICENTER":100.6856,"MEAN_ANOMALY":259.4667,"EPHEMERIS_TYPE":0,"NORAD_CAT_ID":62708,"ELEMENT_SET_NO":999,"REV_AT_EPOCH":8180,"BSTAR":0.00013668359,"MEAN_MOTION_DOT":0.00001554,"MEAN_MOTION_DDOT":0},{"OBJECT_NAME":"CENTAURI-8","OBJECT_ID":"2025-009DK","EPOCH":"2026-07-16T05:10:26.773824","CLASSIFICATION_TYPE":"U","MEAN_MOTION":14.97928994,"ECCENTRICITY":0.00024686,"INCLINATION":97.7037,"RA_OF_ASC_NODE":276.9436,"ARG_OF_PERICENTER":77.7069,"MEAN_ANOMALY":282.443,"EPHEMERIS_TYPE":0,"NORAD_CAT_ID":62714,"ELEMENT_SET_NO":999,"REV_AT_EPOCH":8182,"BSTAR":0.00012459862,"MEAN_MOTION_DOT":0.0000141,"MEAN_MOTION_DDOT":0}]}
