CENTAURI-1              
1 43809U 18099BD  26197.10665490  .00002799  00000+0  14631-3 0  9991
2 43809  97.4205 248.2074 0013059 221.4471 138.5773 15.16629966416881
CENTAURI-6              
1 59451U 24066K   26197.18963854  .00002283  00000+0  17062-3 0  9994
2 59451  45.6065 103.0030 0001642 251.9355 108.1350 15.06039629124491
CENTAURI-7              
1 62708U 25009DD  26197.18687639  .00001554  00000+0  13668-3 0  9993
2 62708  97.7102 277.0953 0002668 100.6856 259.4667 14.97977697 81804
CENTAURI-8              
1 62714U 25009DK  26197.21558766  .00001410  00000+0  12460-3 0  9992
2 62714  97.7037 276.9436 0002468  77.7069 282.4430 14.97928994 81822
